OBJECT_NAME,OBJECT_ID,EPOCH,MEAN_MOTION,ECCENTRICITY,INCLINATION,RA_OF_ASC_NODE,ARG_OF_PERICENTER,MEAN_ANOMALY,EPHEMERIS_TYPE,CLASSIFICATION_TYPE,NORAD_CAT_ID,ELEMENT_SET_NO,REV_AT_EPOCH,BSTAR,MEAN_MOTION_DOT,MEAN_MOTION_DDOT
LEMUR-2-ALISIA,2025-009DB,2026-06-07T03:32:11.980032,15.02625307,.000081,97.6966,240.3857,191.8292,168.2914,0,U,62706,999,9865,.65768E-3,.8707E-4,0
LEMUR-2-ROUNDTRIPPER,2025-009DG,2026-06-07T12:16:30.857664,15.03628563,.0004389,97.7236,241.2054,162.9166,197.2208,0,U,62711,999,7617,.74395E-3,.10126E-3,0
LEMUR-2-MYNAMEISJEFF,2025-009DH,2026-06-07T04:15:11.560032,15.03637510,.00026,97.7284,241.2465,192.6691,167.4469,0,U,62712,999,7612,.73037E-3,.9941E-4,0
LEMUR-2-LEIA-PHILIP,2025-052AN,2026-06-07T10:42:52.554240,14.97288748,.0002064,97.6845,50.5607,253.5118,106.5877,0,U,63246,999,6721,.20814E-3,.2355E-4,0
LEMUR-2-LIA-MARTIN,2025-052AQ,2026-06-07T10:54:27.919584,14.97722098,.0002266,97.6905,51.0288,174.7978,185.3268,0,U,63248,999,6722,.54455E-3,.6328E-4,0
LEMUR-2-DELOITTE-1,2025-052BB,2026-06-07T10:18:35.196192,14.97529831,.0002351,97.6917,51.3337,116.2974,243.8490,0,U,63259,999,6723,.38823E-3,.4472E-4,0
LEMUR-2-EMERSONROSE,2025-052BD,2026-06-07T09:56:42.787104,14.99015784,.0002508,97.6906,51.8591,73.8052,286.3447,0,U,63261,999,6727,.33425E-3,.3993E-4,0
LEMUR-2-MARACHE-FRAN,2025-052BE,2026-06-07T06:18:29.439072,14.99996131,.0006258,97.6943,52.0039,54.7911,305.3898,0,U,63262,999,6727,.56938E-3,.7026E-4,0
LEMUR-2-THEFALCONER,2025-052BG,2026-06-07T10:54:38.641824,14.97324847,.0003592,97.6876,50.9885,61.6588,298.4996,0,U,63264,999,6723,.45412E-3,.5213E-4,0
LEMUR-2-UNTITLED-SC,2025-061A,2026-06-07T04:06:34.119072,15.13402964,.0017161,97.5632,133.6068,302.8896,57.0683,0,U,63351,999,6607,.21177E-3,.3726E-4,0
LEMUR-2-ESPERANZA,2025-061B,2026-06-07T05:09:44.450784,15.13496987,.0016862,97.5641,133.7417,302.1073,57.8521,0,U,63352,999,6608,.25475E-3,.4508E-4,0
LEMUR-2-KREMPEL-BRO2,2025-061C,2026-06-07T04:17:31.998048,15.13931145,.0017545,97.5688,134.2260,293.8266,66.1126,0,U,63353,999,6609,.22355E-3,.3997E-4,0
LEMUR-2-THERMORAPTOR,2025-061D,2026-06-06T04:04:52.612896,15.14001058,.0017353,97.5693,133.2970,296.5843,63.3609,0,U,63354,999,6594,.26919E-3,.4837E-4,0
LEMUR-2-NEUROSPICY,2025-061E,2026-06-07T04:47:55.775904,15.14124373,.0015188,97.5622,133.9549,297.1211,62.8471,0,U,63355,999,6610,.25982E-3,.4679E-4,0
LEMUR-2-TILLINFINITY,2025-061F,2026-06-07T04:09:08.028576,15.14710101,.001623,97.5607,134.2115,283.6464,76.2960,0,U,63356,999,6612,.22297E-3,.4074E-4,0
LEMUR-2-KREMPEL-BRO1,2025-061G,2026-06-07T05:04:13.405728,15.14516117,.0016953,97.5607,134.1685,284.8391,75.0963,0,U,63357,999,6612,.26512E-3,.4832E-4,0
LEMUR-2-LANGER2SPACE,2025-061H,2026-06-07T04:04:21.731808,15.14212057,.0015008,97.5611,133.9450,295.2666,64.7010,0,U,63358,999,6610,.21865E-3,.3936E-4,0
LEMUR-2-BALTO,2025-052BH,2026-06-07T10:44:26.524608,14.99981167,.0006571,97.6879,52.1720,82.1708,278.0261,0,U,63395,999,6730,.52618E-3,.6486E-4,0
LEMUR-2-KRISH,2025-135AK,2026-06-07T05:50:04.223616,14.96112439,.0001116,97.7726,273.1902,106.1067,254.0277,0,U,64561,999,5243,.49419E-3,.5503E-4,0
LEMUR-2-HUBBLE-4,2025-135AP,2026-06-06T14:46:12.567072,14.93168483,.000177,97.7688,271.6508,3.7631,356.3601,0,U,64565,999,5229,.17466E-3,.1767E-4,0
LEMUR-2-SEJONG-2,2025-135BL,2026-06-07T13:03:08.209728,14.96625000,.0004629,97.7684,273.6323,21.7431,338.3986,0,U,64586,999,5250,.50549E-3,.5706E-4,0
LEMUR-2-HUBBLE-5,2025-135BT,2026-06-07T01:04:41.274624,14.94103468,.0005911,97.7708,272.6920,27.0653,333.0874,0,U,64840,999,5239,.15341E-3,.1583E-4,0
LEMUR-2-KARENDARRELL,2025-135BU,2026-06-07T01:05:30.719616,14.99964938,.0009073,97.7672,274.2728,241.6749,118.3559,0,U,64841,999,5249,.73783E-3,.9121E-4,0
LEMUR-2-LUCILLE-ROSE,2025-135BV,2026-06-05T21:15:11.799936,15.00006001,.00106491,97.7773,273.1201,327.0038,33.0519,0,U,65403,999,4694,.79533409E-3,.9851E-4,0
LEMUR-2-AFFIE-WAUWIE,2025-248C,2026-06-07T07:23:30.971040,15.26866519,.0008835,45.3866,168.5000,20.2835,339.8404,0,U,66295,999,3308,.52119E-3,.13749E-3,0
LEMUR-2-DEANANDMAEVE,2025-276N,2026-06-07T04:11:12.789312,15.19608278,.0006639,97.4206,231.8172,46.6819,313.4968,0,U,66678,999,2889,.33145E-3,.6996E-4,0
LEMUR-2-STAS-GORBUK,2025-276W,2026-06-06T23:44:18.871584,15.19271878,.0006121,97.4243,231.6906,47.4890,312.6861,0,U,66686,999,2886,.29958E-3,.6254E-4,0
LEMUR-2-TEODOR,2025-276DG,2026-06-07T10:40:12.537120,15.20944471,.0001837,97.4147,232.3627,123.8427,236.2983,0,U,66768,999,2896,.27385E-3,.5995E-4,0
LEMUR-2-LAILA,2025-276DQ,2026-06-07T11:39:24.420384,15.21165421,.0001555,97.4171,232.5176,147.4805,212.6527,0,U,66776,999,2897,.31967E-3,.7056E-4,0
LEMUR-2-CELIJO-SB-PK,2025-276DW,2026-06-07T10:19:14.173824,14.99857245,.0008834,97.5275,229.5267,155.8122,204.3518,0,U,66781,999,2116,.55969E-3,.6885E-4,0
