LEMUR-2-ALISIA          
1 62706U 25009DB  26158.14736088  .00008707  00000+0  65768-3 0  9992
2 62706  97.6966 240.3857 0000810 191.8292 168.2914 15.02625307 98656
LEMUR-2-ROUNDTRIPPER    
1 62711U 25009DG  26158.51146826  .00010126  00000+0  74395-3 0  9998
2 62711  97.7236 241.2054 0004389 162.9166 197.2208 15.03628563 76175
LEMUR-2-MYNAMEISJEFF    
1 62712U 25009DH  26158.17721713  .00009941  00000+0  73037-3 0  9990
2 62712  97.7284 241.2465 0002600 192.6691 167.4469 15.03637510 76127
LEMUR-2-LEIA-PHILIP     
1 63246U 25052AN  26158.44644160  .00002355  00000+0  20814-3 0  9998
2 63246  97.6845  50.5607 0002064 253.5118 106.5877 14.97288748 67210
LEMUR-2-LIA-MARTIN      
1 63248U 25052AQ  26158.45448981  .00006328  00000+0  54455-3 0  9996
2 63248  97.6905  51.0288 0002266 174.7978 185.3268 14.97722098 67223
LEMUR-2-DELOITTE-1      
1 63259U 25052BB  26158.42957403  .00004472  00000+0  38823-3 0  9998
2 63259  97.6917  51.3337 0002351 116.2974 243.8490 14.97529831 67236
LEMUR-2-EMERSONROSE     
1 63261U 25052BD  26158.41438411  .00003993  00000+0  33425-3 0  9993
2 63261  97.6906  51.8591 0002508  73.8052 286.3447 14.99015784 67270
LEMUR-2-MARACHE-FRAN    
1 63262U 25052BE  26158.26284073  .00007026  00000+0  56938-3 0  9995
2 63262  97.6943  52.0039 0006258  54.7911 305.3898 14.99996131 67276
LEMUR-2-THEFALCONER     
1 63264U 25052BG  26158.45461391  .00005213  00000+0  45412-3 0  9999
2 63264  97.6876  50.9885 0003592  61.6588 298.4996 14.97324847 67238
LEMUR-2-UNTITLED-SC     
1 63351U 25061A   26158.17122823  .00003726  00000+0  21177-3 0  9998
2 63351  97.5632 133.6068 0017161 302.8896  57.0683 15.13402964 66074
LEMUR-2-ESPERANZA       
1 63352U 25061B   26158.21509781  .00004508  00000+0  25475-3 0  9990
2 63352  97.5641 133.7417 0016862 302.1073  57.8521 15.13496987 66089
LEMUR-2-KREMPEL-BRO2    
1 63353U 25061C   26158.17884257  .00003997  00000+0  22355-3 0  9995
2 63353  97.5688 134.2260 0017545 293.8266  66.1126 15.13931145 66097
LEMUR-2-THERMORAPTOR    
1 63354U 25061D   26157.17005339  .00004837  00000+0  26919-3 0  9995
2 63354  97.5693 133.2970 0017353 296.5843  63.3609 15.14001058 65949
LEMUR-2-NEUROSPICY      
1 63355U 25061E   26158.19995111  .00004679  00000+0  25982-3 0  9998
2 63355  97.5622 133.9549 0015188 297.1211  62.8471 15.14124373 66107
LEMUR-2-TILLINFINITY    
1 63356U 25061F   26158.17300959  .00004074  00000+0  22297-3 0  9992
2 63356  97.5607 134.2115 0016230 283.6464  76.2960 15.14710101 66127
LEMUR-2-KREMPEL-BRO1    
1 63357U 25061G   26158.21126627  .00004832  00000+0  26512-3 0  9992
2 63357  97.5607 134.1685 0016953 284.8391  75.0963 15.14516117 66124
LEMUR-2-LANGER2SPACE    
1 63358U 25061H   26158.16969597  .00003936  00000+0  21865-3 0  9998
2 63358  97.5611 133.9450 0015008 295.2666  64.7010 15.14212057 66100
LEMUR-2-BALTO           
1 63395U 25052BH  26158.44752922  .00006486  00000+0  52618-3 0  9995
2 63395  97.6879  52.1720 0006571  82.1708 278.0261 14.99981167 67303
LEMUR-2-KRISH           
1 64561U 25135AK  26158.24310444  .00005503  00000+0  49419-3 0  9994
2 64561  97.7726 273.1902 0001116 106.1067 254.0277 14.96112439 52437
LEMUR-2-HUBBLE-4        
1 64565U 25135AP  26157.61542323  .00001767  00000+0  17466-3 0  9996
2 64565  97.7688 271.6508 0001770   3.7631 356.3601 14.93168483 52296
LEMUR-2-SEJONG-2        
1 64586U 25135BL  26158.54384502  .00005706  00000+0  50549-3 0  9991
2 64586  97.7684 273.6323 0004629  21.7431 338.3986 14.96625000 52502
LEMUR-2-HUBBLE-5        
1 64840U 25135BT  26158.04492216  .00001583  00000+0  15341-3 0  9991
2 64840  97.7708 272.6920 0005911  27.0653 333.0874 14.94103468 52396
LEMUR-2-KARENDARRELL    
1 64841U 25135BU  26158.04549444  .00009121  00000+0  73783-3 0  9998
2 64841  97.7672 274.2728 0009073 241.6749 118.3559 14.99964938 52491
LEMUR-2-LUCILLE-ROSE    
1 65403U 25135BV  26156.88555324  .00009851  00000+0  79533-3 0  9996
2 65403  97.7773 273.1201 0010649 327.0038  33.0519 15.00006001 46946
LEMUR-2-AFFIE-WAUWIE    
1 66295U 25248C   26158.30799735  .00013749  00000+0  52119-3 0  9998
2 66295  45.3866 168.5000 0008835  20.2835 339.8404 15.26866519 33080
LEMUR-2-DEANANDMAEVE    
1 66678U 25276N   26158.17445358  .00006996  00000+0  33145-3 0  9992
2 66678  97.4206 231.8172 0006639  46.6819 313.4968 15.19608278 28893
LEMUR-2-STAS-GORBUK     
1 66686U 25276W   26157.98910731  .00006254  00000+0  29958-3 0  9995
2 66686  97.4243 231.6906 0006121  47.4890 312.6861 15.19271878 28862
LEMUR-2-TEODOR          
1 66768U 25276DG  26158.44458955  .00005995  00000+0  27385-3 0  9996
2 66768  97.4147 232.3627 0001837 123.8427 236.2983 15.20944471 28963
LEMUR-2-LAILA           
1 66776U 25276DQ  26158.48569931  .00007056  00000+0  31967-3 0  9997
2 66776  97.4171 232.5176 0001555 147.4805 212.6527 15.21165421 28973
LEMUR-2-CELIJO-SB-PK    
1 66781U 25276DW  26158.43002516  .00006885  00000+0  55969-3 0  9996
2 66781  97.5275 229.5267 0008834 155.8122 204.3518 14.99857245 21162
